NORAD_CAT_ID,OBJECT_NAME,OBJECT_TYPE,EPOCH,MEAN_MOTION,ECCENTRICITY,INCLINATION,RA_OF_ASC_NODE,ARG_OF_PERICENTER,MEAN_ANOMALY,BSTAR,MEAN_MOTION_DOT,MEAN_MOTION_DDOT,TLE_LINE0,TLE_LINE1,TLE_LINE2,SEMIMAJOR_AXIS,PERIOD,APOGEE,PERIGEE,DECAYED
228,DELTA 1 DEB (YO),DEBRIS,2020-04-02 02:05:45,15.01289471,0.0015377000000000001,48.4288,157.1304,317.4467,42.5264,2.8258000000000013e-05,1.05e-06,0.0,0 DELTA 1 DEB (YO),1   228U 62002C   20093.08733337 +.00000105 +00000-0 +28258-4 0  9995,2   228 048.4288 157.1304 0015377 317.4467 042.5264 15.01289471099744,6941.056,95.91799999999999,573.594,552.248,0.0
228,DELTA 1 DEB (YO),DEBRIS,2020-04-02 14:52:28,15.01290029,0.0015358,48.4287,154.512,319.7643,40.2143,3.0539e-05,1.35e-06,0.0,0 DELTA 1 DEB (YO),1   228U 62002C   20093.61977154 +.00000135 +00000-0 +30539-4 0  9999,2   228 048.4287 154.5120 0015358 319.7643 040.2143 15.01290029099821,6941.054,95.91799999999999,573.5790000000002,552.259,0.0
228,DELTA 1 DEB (YO),DEBRIS,2020-04-03 10:02:32,15.0129075,0.0015328,48.4286,150.5842,323.2141,36.773,3.1514000000000004e-05,1.48e-06,0.0,0 DELTA 1 DEB (YO),1   228U 62002C   20094.41842847 +.00000148 +00000-0 +31514-4 0  9996,2   228 048.4286 150.5842 0015328 323.2141 036.7730 15.01290750099943,6941.052,95.917,573.556,552.278,0.0
228,DELTA 1 DEB (YO),DEBRIS,2020-04-03 13:14:12,15.01290745,0.0015324000000000002,48.4286,149.9295,323.811,36.1775,3.0301e-05,1.32e-06,0.0,0 DELTA 1 DEB (YO),1   228U 62002C   20094.55153804  .00000132  00000-0  30301-4 0  9995,2   228  48.4286 149.9295 0015324 323.8110  36.1775 15.01290745124097,6941.052,95.917,573.554,552.281,0.0
228,DELTA 1 DEB (YO),DEBRIS,2020-04-04 03:36:45,15.01291459,0.0015307,48.4285,146.9836,326.3925,33.6026,3.255e-05,1.62e-06,0.0,0 DELTA 1 DEB (YO),1   228U 62002C   20095.15053038 +.00000162 +00000-0 +32550-4 0  9991,2   228 048.4285 146.9836 0015307 326.3925 033.6026 15.01291459100051,6941.05,95.917,573.54,552.29,0.0
228,DELTA 1 DEB (YO),DEBRIS,2020-04-04 13:11:47,15.01291599,0.0015294,48.4285,145.0197,328.1311,31.8686,3.0009e-05,1.28e-06,0.0,0 DELTA 1 DEB (YO),1   228U 62002C   20095.54985872 +.00000128 +00000-0 +30009-4 0  9993,2   228 048.4285 145.0197 0015294 328.1311 031.8686 15.01291599100119,6941.049,95.917,573.53,552.299,0.0
228,DELTA 1 DEB (YO),DEBRIS,2020-04-05 05:10:11,15.012920800000002,0.0015269,48.4285,141.7464,331.0095,28.9979,2.8141e-05,1.04e-06,0.0,0 DELTA 1 DEB (YO),1   228U 62002C   20096.21540548 +.00000104 +00000-0 +28141-4 0  9993,2   228 048.4285 141.7464 0015269 331.0095 028.9979 15.01292080100212,6941.0480000000025,95.917,573.511,552.315,0.0
228,DELTA 1 DEB (YO),DEBRIS,2020-04-05 19:32:43,15.01292663,0.0015247,48.4285,138.8006,333.6421,26.3726,2.9137e-05,1.17e-06,0.0,0 DELTA 1 DEB (YO),1   228U 62002C   20096.81439746  .00000117  00000-0  29137-4 0  9996,2   228  48.4285 138.8006 0015247 333.6421  26.3726 15.01292663124437,6941.0459999999985,95.917,573.494,552.328,0.0
228,DELTA 1 DEB (YO),DEBRIS,2020-04-06 11:31:07,15.01293102,0.0015217,48.4285,135.5274,336.5411,23.4817,2.8786e-05,1.12e-06,0.0,0 DELTA 1 DEB (YO),1   228U 62002C   20097.47994406 +.00000112 +00000-0 +28786-4 0  9992,2   228 048.4285 135.5274 0015217 336.5411 023.4817 15.01293102100405,6941.045,95.917,573.472,552.3480000000002,0.0
228,DELTA 1 DEB (YO),DEBRIS,2020-04-06 19:30:18,15.01293342,0.0015208,48.4285,133.8909,337.9902,22.0366,2.8428000000000013e-05,1.08e-06,0.0,0 DELTA 1 DEB (YO),1   228U 62002C   20097.81271723 +.00000108 +00000-0 +28428-4 0  9998,2   228 048.4285 133.8909 0015208 337.9902 022.0366 15.01293342100456,6941.044,95.917,573.465,552.3530000000002,0.0
228,DELTA 1 DEB (YO),DEBRIS,2020-04-07 13:04:32,15.0129381,0.0015172,48.4285,130.2903,341.2107,18.8255,2.8169e-05,1.04e-06,0.0,0 DELTA 1 DEB (YO),1   228U 62002C   20098.54481825 +.00000104 +00000-0 +28169-4 0  9993,2   228 048.4285 130.2903 0015172 341.2107 018.8255 15.01293810100568,6941.043000000002,95.917,573.439,552.377,0.0
228,DELTA 1 DEB (YO),DEBRIS,2020-04-08 01:51:14,15.01294208,0.0015152000000000002,48.4285,127.6716,343.5253,16.5176,2.8054e-05,1.03e-06,0.0,0 DELTA 1 DEB (YO),1   228U 62002C   20099.07725510  .00000103  00000-0  28054-4 0  9996,2   228  48.4285 127.6716 0015152 343.5253  16.5176 15.01294208124773,6941.041,95.917,573.423,552.389,0.0
228,DELTA 1 DEB (YO),DEBRIS,2020-04-08 11:26:16,15.01294697,0.0015130999999999999,48.4285,125.7078,345.29900000000015,14.7492,2.9990999999999998e-05,1.28e-06,0.0,0 DELTA 1 DEB (YO),1   228U 62002C   20099.47658257 +.00000128 +00000-0 +29991-4 0  9991,2   228 048.4285 125.7078 0015131 345.2990 014.7492 15.01294697100707,6941.04,95.917,573.4069999999998,552.4019999999998,0.0
228,DELTA 1 DEB (YO),DEBRIS,2020-04-09 03:24:39,15.012951500000002,0.0015101,48.4286,122.4345,348.2118,11.845,2.8134000000000002e-05,1.04e-06,0.0,0 DELTA 1 DEB (YO),1   228U 62002C   20100.14212822  .00000104  00000-0  28134-4 0  9994,2   228  48.4286 122.4345 0015101 348.2118  11.8450 15.01295150124939,6941.0390000000025,95.917,573.385,552.422,0.0
228,DELTA 1 DEB (YO),DEBRIS,2020-04-09 11:23:51,15.01295654,0.0015084000000000002,48.4286,120.79799999999999,349.69599999999997,10.3652,3.1239000000000004e-05,1.44e-06,0.0,0 DELTA 1 DEB (YO),1   228U 62002C   20100.47490094 +.00000144 +00000-0 +31239-4 0  9993,2   228 048.4286 120.7980 0015084 349.6960 010.3652 15.01295654100857,6941.0369999999975,95.917,573.372,552.432,0.0
228,DELTA 1 DEB (YO),DEBRIS,2020-04-10 03:22:14,15.01296194,0.0015053,48.4286,117.5247,352.6143,7.4556,3.0713e-05,1.37e-06,0.0,0 DELTA 1 DEB (YO),1   228U 62002C   20101.14044618 +.00000137 +00000-0 +30713-4 0  9993,2   228 048.4286 117.5247 0015053 352.6143 007.4556 15.01296194100951,6941.035,95.917,573.349,552.452,0.0
228,DELTA 1 DEB (YO),DEBRIS,2020-04-10 08:09:45,15.01296353,0.001505,48.4286,116.5428,353.5084,6.5643,3.0825e-05,1.39e-06,0.0,0 DELTA 1 DEB (YO),1   228U 62002C   20101.34010975  .00000139  00000-0  30825-4 0  9990,2   228  48.4286 116.5428 0015050 353.5084   6.5643 15.01296353125111,6941.035,95.917,573.346,552.4540000000002,0.0
228,DELTA 1 DEB (YO),DEBRIS,2020-04-10 17:44:47,15.01296758,0.001504,48.4286,114.5789,355.2785,4.7995,3.1462e-05,1.47e-06,0.0,0 DELTA 1 DEB (YO),1   228U 62002C   20101.73943668 +.00000147 +00000-0 +31462-4 0  9994,2   228 048.4286 114.5789 0015040 355.2785 004.7995 15.01296758101040,6941.034000000002,95.917,573.3380000000002,552.4590000000002,0.0
228,DELTA 1 DEB (YO),DEBRIS,2020-04-11 03:19:49,15.01297074,0.0015012,48.4286,112.6149,357.0432,3.0401,3.1634e-05,1.49e-06,0.0,0 DELTA 1 DEB (YO),1   228U 62002C   20102.13876362 +.00000149 +00000-0 +31634-4 0  9998,2   228 048.4286 112.6149 0015012 357.0432 003.0401 15.01297074101100,6941.033,95.917,573.317,552.4780000000002,0.0
228,DELTA 1 DEB (YO),DEBRIS,2020-04-11 09:43:10,15.01297327,0.0015006,48.4286,111.3057,358.2446,1.8423,3.2365e-05,1.59e-06,0.0,0 DELTA 1 DEB (YO),1   228U 62002C   20102.40498155  .00000159  00000-0  32365-4 0  9991,2   228  48.4286 111.3057 0015006 358.2446   1.8423 15.01297327125270,6941.031999999997,95.917,573.313,552.481,0.0
228,DELTA 1 DEB (YO),DEBRIS,2020-04-11 17:42:21,15.01297609,0.0014995,48.4286,109.6691,359.7101,0.3811,3.2266e-05,1.58e-06,0.0,0 DELTA 1 DEB (YO),1   228U 62002C   20102.73775385 +.00000158 +00000-0 +32266-4 0  9999,2   228 048.4286 109.6691 0014995 359.7101 000.3811 15.01297609101197,6941.031,95.917,573.304,552.488,0.0
228,DELTA 1 DEB (YO),DEBRIS,2020-04-12 06:29:04,15.01298175,0.0014958,48.4286,107.0504,2.0783,358.02,3.3947e-05,1.8000000000000001e-06,0.0,0 DELTA 1 DEB (YO),1   228U 62002C   20103.27018937 +.00000180 +00000-0 +33947-4 0  9994,2   228 048.4286 107.0504 0014958 002.0783 358.0200 15.01298175101278,6941.029,95.917,573.2769999999998,552.512,0.0
228,DELTA 1 DEB (YO),DEBRIS,2020-04-13 09:38:19,15.01299353,0.0014913,48.4287,101.4859,7.1386,352.9747,3.5297e-05,1.97e-06,0.0,0 DELTA 1 DEB (YO),1   228U 62002C   20104.40161420  .00000197  00000-0  35297-4 0  9994,2   228  48.4287 101.4859 0014913   7.1386 352.9747 15.01299353125573,6941.026,95.917,573.242,552.539,0.0
228,DELTA 1 DEB (YO),DEBRIS,2020-04-13 20:49:11,15.01299758,0.0014897,48.4288,99.1946,9.201,350.9184,3.4679e-05,1.89e-06,0.0,0 DELTA 1 DEB (YO),1   228U 62002C   20104.86749479 +.00000189 +00000-0 +34679-4 0  9994,2   228 048.4288 099.1946 0014897 009.2010 350.9184 15.01299758101512,6941.024,95.917,573.229,552.549,0.0
228,DELTA 1 DEB (YO),DEBRIS,2020-04-14 09:35:53,15.01300305,0.0014883,48.4288,96.57600000000001,11.6234,348.50300000000016,3.4977e-05,1.93e-06,0.0,0 DELTA 1 DEB (YO),1   228U 62002C   20105.39992952 +.00000193 +00000-0 +34977-4 0  9995,2   228 048.4288 096.5760 0014883 011.6234 348.5030 15.01300305101599,6941.023,95.917,573.2180000000002,552.557,0.0
228,DELTA 1 DEB (YO),DEBRIS,2020-04-15 01:34:16,15.01301033,0.0014847,48.4289,93.3026,14.582,345.5529,3.5866e-05,2.05e-06,0.0,0 DELTA 1 DEB (YO),1   228U 62002C   20106.06547255  .00000205  00000-0  35866-4 0  9994,2   228  48.4289  93.3026 0014847  14.5820 345.5529 15.01301033125824,6941.02,95.917,573.191,552.58,0.0
228,DELTA 1 DEB (YO),DEBRIS,2020-04-15 09:33:28,15.01301389,0.0014845000000000001,48.428999999999995,91.6661,16.1087,344.0305,3.6666e-05,2.15e-06,0.0,0 DELTA 1 DEB (YO),1   228U 62002C   20106.39824402 +.00000215 +00000-0 +36666-4 0  9992,2   228 048.4290 091.6661 0014845 016.1087 344.0305 15.01301389101748,6941.019,95.917,573.188,552.58,0.0
228,DELTA 1 DEB (YO),DEBRIS,2020-04-15 15:56:49,15.01301635,0.0014838,48.428999999999995,90.3568,17.2904,342.8522,3.6431e-05,2.12e-06,0.0,0 DELTA 1 DEB (YO),1   228U 62002C   20106.66446111 +.00000212 +00000-0 +36431-4 0  9996,2   228 048.4290 090.3568 0014838 017.2904 342.8522 15.01301635101787,6941.019,95.917,573.183,552.5840000000002,0.0
